[
    {
        "Altitude(m)": 622200.0835135763,
        "Argument of Periapsis(deg)": 0.0,
        "Eccentricity": 0.0,
        "Inclination(deg)": 60.0,
        "Latitude(deg)": -52.16247285057623,
        "Longitude(deg)": 57.36084420699716,
        "Mean Anomaly(deg)": -65.45449999999995,
        "RAAN(deg)": 205.0,
        "Satellite Name": "Test1 920",
        "Satellite Number": 920,
        "Semi-Major Axis(m)": 6980739.136638005,
        "Time(s)": 0
    },
    {
        "Altitude(m)": 622058.2508424589,
        "Argument of Periapsis(deg)": 0.00010418945913296404,
        "Eccentricity": 0.0,
        "Inclination(deg)": 60.0,
        "Latitude(deg)": -51.7992215457467,
        "Longitude(deg)": 58.128899784014386,
        "Mean Anomaly(deg)": -64.8343938545381,
        "RAAN(deg)": 204.99957995086024,
        "Satellite Name": "Test1 920",
        "Satellite Number": 920,
        "Semi-Major Axis(m)": 6980739.136638005,
        "Time(s)": 10
    }
]